STARLINK-5948           
1 55991U 23042F   26186.80332132  .00000353  00000+0  22343-4 0  9993
2 55991  43.0023 109.1357 0001332 254.5025 105.5680 15.27582410180976
STARLINK-30906          
1 58408U 23180G   26187.19184332 -.00005636  00000+0 -19567-3 0  9996
2 58408  42.9997 107.0463 0000935 260.6243  99.4503 15.27544148145593
STARLINK-31534          
1 59398U 24064A   26186.80073023 -.00005300  00000+0 -18340-3 0  9994
2 59398  43.0003 108.7721 0001089 248.6820 111.3916 15.27547568127237
STARLINK-31400          
1 59405U 24064H   26187.13151037 -.00006849  00000+0 -23988-3 0  9995
2 59405  42.9957 106.9504 0000787 189.0468 171.0370 15.27545188127346
STARLINK-32104          
1 59695U 24086P   26187.13291733 -.00002410  00000+0 -78134-4 0  9992
2 59695  43.0007 107.7036 0001174 265.8306  94.2411 15.27560927122265
STARLINK-35981          
1 66598U 25270L   26187.12893735  .00020341  00000+0  74790-3 0  9991
2 66598  42.9996 106.9495 0001104 261.3820  98.6906 15.27525060 35679
