{
  "schema": "int-telemetry-real-tle-snapshot/v1",
  "source": "celestrak",
  "group": "STARLINK",
  "format": "celestrak-gp-json",
  "source_url": "https://celestrak.org/NORAD/elements/gp.php?NAME=STARLINK&FORMAT=JSON",
  "downloaded_at": "2026-07-07T07:29:27.338Z",
  "generated_at": "2026-07-07T07:29:37.186Z",
  "fingerprint": "4a165085",
  "shell_id": "starlink-real-43deg-490km",
  "catalog_count": 10705,
  "shell_count": 3263,
  "selected_count": 348,
  "mean_altitude_km": 490.18,
  "mean_inclination_deg": 43.0022,
  "mean_mean_motion_rev_per_day": 15.27582862,
  "layout": {
    "planes": 6,
    "satellites_per_plane": 58,
    "selection_strategy": "target-shell-raan-clusters-even-slot-sampling",
    "raan_cluster_threshold_deg": 3,
    "target_inclination_deg": 43,
    "target_altitude_km": 490,
    "selected_shell_key": "43.0deg-500km",
    "target_shell_distance": 0.46
  },
  "satellites": [
    {
      "satellite_id": "P02-S33",
      "norad_id": 59695,
      "satellite_name": "STARLINK-32104",
      "cospar_id": "2024-086P",
      "shell_id": "starlink-real-43deg-490km",
      "plane_id": 1,
      "slot_id": 32,
      "epoch": "2026-07-06T03:11:24.057312",
      "inclination": 43.0007,
      "raan": 107.7036,
      "eccentricity": 0.00011747,
      "argument_of_perigee": 265.8306,
      "mean_anomaly": 94.24110000000002,
      "mean_motion": 15.27560927,
      "bstar": -0.0000781337,
      "status": "active",
      "raw_omm": {
        "OBJECT_NAME": "STARLINK-32104",
        "OBJECT_ID": "2024-086P",
        "EPOCH": "2026-07-06T03:11:24.057312",
        "MEAN_MOTION": 15.27560927,
        "ECCENTRICITY": 0.00011747,
        "INCLINATION": 43.0007,
        "RA_OF_ASC_NODE": 107.7036,
        "ARG_OF_PERICENTER": 265.8306,
        "MEAN_ANOMALY": 94.2411,
        "EPHEMERIS_TYPE": 0,
        "CLASSIFICATION_TYPE": "U",
        "NORAD_CAT_ID": 59695,
        "ELEMENT_SET_NO": 999,
        "REV_AT_EPOCH": 12226,
        "BSTAR": -0.0000781337,
        "MEAN_MOTION_DOT": -0.0000241,
        "MEAN_MOTION_DDOT": 0
      },
      "source": "celestrak",
      "source_url": "https://celestrak.org/NORAD/elements/gp.php?NAME=STARLINK&FORMAT=JSON",
      "catalog_fingerprint": "4a165085"
    },
    {
      "satellite_id": "P02-S34",
      "norad_id": 59405,
      "satellite_name": "STARLINK-31400",
      "cospar_id": "2024-064H",
      "shell_id": "starlink-real-43deg-490km",
      "plane_id": 1,
      "slot_id": 33,
      "epoch": "2026-07-06T03:09:22.495968",
      "inclination": 42.9957,
      "raan": 106.9504,
      "eccentricity": 0.00007876,
      "argument_of_perigee": 189.04679999999996,
      "mean_anomaly": 171.03700000000003,
      "mean_motion": 15.27545188,
      "bstar": -0.000239877,
      "status": "active",
      "raw_omm": {
        "OBJECT_NAME": "STARLINK-31400",
        "OBJECT_ID": "2024-064H",
        "EPOCH": "2026-07-06T03:09:22.495968",
        "MEAN_MOTION": 15.27545188,
        "ECCENTRICITY": 0.00007876,
        "INCLINATION": 42.9957,
        "RA_OF_ASC_NODE": 106.9504,
        "ARG_OF_PERICENTER": 189.0468,
        "MEAN_ANOMALY": 171.037,
        "EPHEMERIS_TYPE": 0,
        "CLASSIFICATION_TYPE": "U",
        "NORAD_CAT_ID": 59405,
        "ELEMENT_SET_NO": 999,
        "REV_AT_EPOCH": 12734,
        "BSTAR": -0.000239877,
        "MEAN_MOTION_DOT": -0.00006849,
        "MEAN_MOTION_DDOT": 0
      },
      "source": "celestrak",
      "source_url": "https://celestrak.org/NORAD/elements/gp.php?NAME=STARLINK&FORMAT=JSON",
      "catalog_fingerprint": "4a165085"
    },
    {
      "satellite_id": "P02-S35",
      "norad_id": 55991,
      "satellite_name": "STARLINK-5948",
      "cospar_id": "2023-042F",
      "shell_id": "starlink-real-43deg-490km",
      "plane_id": 1,
      "slot_id": 34,
      "epoch": "2026-07-05T19:16:46.962048",
      "inclination": 43.0023,
      "raan": 109.13569999999999,
      "eccentricity": 0.00013321,
      "argument_of_perigee": 254.50250000000005,
      "mean_anomaly": 105.56799999999998,
      "mean_motion": 15.2758241,
      "bstar": 0.00002234297,
      "status": "active",
      "raw_omm": {
        "OBJECT_NAME": "STARLINK-5948",
        "OBJECT_ID": "2023-042F",
        "EPOCH": "2026-07-05T19:16:46.962048",
        "MEAN_MOTION": 15.2758241,
        "ECCENTRICITY": 0.00013321,
        "INCLINATION": 43.0023,
        "RA_OF_ASC_NODE": 109.1357,
        "ARG_OF_PERICENTER": 254.5025,
        "MEAN_ANOMALY": 105.568,
        "EPHEMERIS_TYPE": 0,
        "CLASSIFICATION_TYPE": "U",
        "NORAD_CAT_ID": 55991,
        "ELEMENT_SET_NO": 999,
        "REV_AT_EPOCH": 18097,
        "BSTAR": 0.00002234297,
        "MEAN_MOTION_DOT": 0.00000353,
        "MEAN_MOTION_DDOT": 0
      },
      "source": "celestrak",
      "source_url": "https://celestrak.org/NORAD/elements/gp.php?NAME=STARLINK&FORMAT=JSON",
      "catalog_fingerprint": "4a165085"
    },
    {
      "satellite_id": "P02-S36",
      "norad_id": 66598,
      "satellite_name": "STARLINK-35981",
      "cospar_id": "2025-270L",
      "shell_id": "starlink-real-43deg-490km",
      "plane_id": 1,
      "slot_id": 35,
      "epoch": "2026-07-06T03:05:40.187040",
      "inclination": 42.9996,
      "raan": 106.9495,
      "eccentricity": 0.0001104,
      "argument_of_perigee": 261.38200000000006,
      "mean_anomaly": 98.69060000000002,
      "mean_motion": 15.2752506,
      "bstar": 0.0007479,
      "status": "active",
      "raw_omm": {
        "OBJECT_NAME": "STARLINK-35981",
        "OBJECT_ID": "2025-270L",
        "EPOCH": "2026-07-06T03:05:40.187040",
        "MEAN_MOTION": 15.2752506,
        "ECCENTRICITY": 0.0001104,
        "INCLINATION": 42.9996,
        "RA_OF_ASC_NODE": 106.9495,
        "ARG_OF_PERICENTER": 261.382,
        "MEAN_ANOMALY": 98.6906,
        "EPHEMERIS_TYPE": 0,
        "CLASSIFICATION_TYPE": "U",
        "NORAD_CAT_ID": 66598,
        "ELEMENT_SET_NO": 999,
        "REV_AT_EPOCH": 3567,
        "BSTAR": 0.0007479,
        "MEAN_MOTION_DOT": 0.00020341,
        "MEAN_MOTION_DDOT": 0
      },
      "source": "celestrak",
      "source_url": "https://celestrak.org/NORAD/elements/gp.php?NAME=STARLINK&FORMAT=JSON",
      "catalog_fingerprint": "4a165085"
    },
    {
      "satellite_id": "P02-S37",
      "norad_id": 59398,
      "satellite_name": "STARLINK-31534",
      "cospar_id": "2024-064A",
      "shell_id": "starlink-real-43deg-490km",
      "plane_id": 1,
      "slot_id": 36,
      "epoch": "2026-07-05T19:13:03.091872",
      "inclination": 43.0003,
      "raan": 108.77210000000002,
      "eccentricity": 0.00010893,
      "argument_of_perigee": 248.68200000000002,
      "mean_anomaly": 111.39159999999998,
      "mean_motion": 15.27547568,
      "bstar": -0.00018340109,
      "status": "active",
      "raw_omm": {
        "OBJECT_NAME": "STARLINK-31534",
        "OBJECT_ID": "2024-064A",
        "EPOCH": "2026-07-05T19:13:03.091872",
        "MEAN_MOTION": 15.27547568,
        "ECCENTRICITY": 0.00010893,
        "INCLINATION": 43.0003,
        "RA_OF_ASC_NODE": 108.7721,
        "ARG_OF_PERICENTER": 248.682,
        "MEAN_ANOMALY": 111.3916,
        "EPHEMERIS_TYPE": 0,
        "CLASSIFICATION_TYPE": "U",
        "NORAD_CAT_ID": 59398,
        "ELEMENT_SET_NO": 999,
        "REV_AT_EPOCH": 12723,
        "BSTAR": -0.00018340109,
        "MEAN_MOTION_DOT": -0.000053,
        "MEAN_MOTION_DDOT": 0
      },
      "source": "celestrak",
      "source_url": "https://celestrak.org/NORAD/elements/gp.php?NAME=STARLINK&FORMAT=JSON",
      "catalog_fingerprint": "4a165085"
    },
    {
      "satellite_id": "P02-S38",
      "norad_id": 58408,
      "satellite_name": "STARLINK-30906",
      "cospar_id": "2023-180G",
      "shell_id": "starlink-real-43deg-490km",
      "plane_id": 1,
      "slot_id": 37,
      "epoch": "2026-07-06T04:36:15.262848",
      "inclination": 42.9997,
      "raan": 107.04629999999997,
      "eccentricity": 0.0000935,
      "argument_of_perigee": 260.62429999999995,
      "mean_anomaly": 99.45029999999997,
      "mean_motion": 15.27544148,
      "bstar": -0.00019566968,
      "status": "active",
      "raw_omm": {
        "OBJECT_NAME": "STARLINK-30906",
        "OBJECT_ID": "2023-180G",
        "EPOCH": "2026-07-06T04:36:15.262848",
        "MEAN_MOTION": 15.27544148,
        "ECCENTRICITY": 0.0000935,
        "INCLINATION": 42.9997,
        "RA_OF_ASC_NODE": 107.0463,
        "ARG_OF_PERICENTER": 260.6243,
        "MEAN_ANOMALY": 99.4503,
        "EPHEMERIS_TYPE": 0,
        "CLASSIFICATION_TYPE": "U",
        "NORAD_CAT_ID": 58408,
        "ELEMENT_SET_NO": 999,
        "REV_AT_EPOCH": 14559,
        "BSTAR": -0.00019566968,
        "MEAN_MOTION_DOT": -0.00005636,
        "MEAN_MOTION_DDOT": 0
      },
      "source": "celestrak",
      "source_url": "https://celestrak.org/NORAD/elements/gp.php?NAME=STARLINK&FORMAT=JSON",
      "catalog_fingerprint": "4a165085"
    }
  ]
}